NORAD_CAT_ID,OBJECT_NAME,OBJECT_TYPE,EPOCH,MEAN_MOTION,ECCENTRICITY,INCLINATION,RA_OF_ASC_NODE,ARG_OF_PERICENTER,MEAN_ANOMALY,BSTAR,MEAN_MOTION_DOT,MEAN_MOTION_DDOT,TLE_LINE0,TLE_LINE1,TLE_LINE2,SEMIMAJOR_AXIS,PERIOD,APOGEE,PERIGEE,DECAYED
51139.0,STARLINK-3172,PAYLOAD,2024-01-23 16:57:38,15.08879447,0.0001392,53.2174,182.6398,102.8472,257.2676,0.00033008,4.975e-05,0.0,0 STARLINK-3172,1 51139U 22005AM  24023.70669776  .00004975  00000-0  33008-3 0  9999,2 51139  53.2174 182.6398 0001392 102.8472 257.2676 15.08879447111594,6917.76,95.435,540.588,538.662,0.0
51139.0,STARLINK-3172,PAYLOAD,2024-01-24 13:37:42,15.08835979,0.0001436,53.2172,178.7732,115.2796,244.8345,0.00012885,1.763e-05,0.0,0 STARLINK-3172,1 51139U 22005AM  24024.56785358  .00001763  00000-0  12885-3 0  9991,2 51139  53.2172 178.7732 0001436 115.2796 244.8345 15.08835979111728,6917.893,95.438,540.751,538.764,0.0
51139.0,STARLINK-3172,PAYLOAD,2024-01-24 16:48:29,15.08822866,0.0001195,53.2165,178.1808,71.8357,288.2765,2.6829e-05,1.39e-06,0.0,0 STARLINK-3172,1 51139U 22005AM  24024.70034600  .00000139  00000-0  26829-4 0  9994,2 51139  53.2165 178.1808 0001195  71.8357 288.2765 15.08822866112854,6917.933,95.439,540.624,538.971,0.0
51139.0,STARLINK-3172,PAYLOAD,2024-01-24 21:34:39,15.08824872,0.0001026,53.2157,177.2895,89.6594,270.4516,2.8598e-05,1.67e-06,0.0,0 STARLINK-3172,1 51139U 22005AM  24024.89906496  .00000167  00000-0  28598-4 0  9991,2 51139  53.2157 177.2895 0001026  89.6594 270.4516 15.08824872111770,6917.927,95.439,540.501,539.082,0.0
51139.0,STARLINK-3172,PAYLOAD,2024-01-25 13:28:29,15.08858244,0.0001196,53.2163,174.3209,72.1213,287.9909,-0.00021096,-3.645e-05,0.0,0 STARLINK-3172,1 51139U 22005AM  24025.56144895 -.00003645  00000-0 -21096-3 0  9994,2 51139  53.2163 174.3209 0001196  72.1213 287.9909 15.08858244111877,6917.825,95.436,540.517,538.862,0.0
51139.0,STARLINK-3172,PAYLOAD,2024-01-25 15:03:52,15.08860468,0.0001211,53.2163,174.0198,77.4407,282.6721,-0.00020358,-3.528e-05,0.0,0 STARLINK-3172,1 51139U 22005AM  24025.62768577 -.00003528  00000-0 -20358-3 0  9990,2 51139  53.2163 174.0198 0001211  77.4407 282.6721 15.08860468112991,6917.818,95.436,540.521,538.845,0.0
51139.0,STARLINK-3172,PAYLOAD,2024-01-26 14:54:39,15.08839914,0.0001425,53.2161,169.5582,58.5439,301.5692,0.000241,3.55e-05,0.0,0 STARLINK-3172,1 51139U 22005AM  24026.62128604  .00003550  00000-0  24100-3 0  9994,2 51139  53.2161 169.5582 0001425  58.5439 301.5692 15.08839914112032,6917.881,95.438,540.731,538.76,0.0
51139.0,STARLINK-3172,PAYLOAD,2024-01-27 09:59:17,15.08833336,0.0001341,53.2175,165.9855,90.3196,269.795,-1.8321e-05,-5.79e-06,0.0,0 STARLINK-3172,1 51139U 22005AM  24027.41617950 -.00000579  00000-0 -18321-4 0  9998,2 51139  53.2175 165.9855 0001341  90.3196 269.7950 15.08833336113261,6917.901,95.438,540.693,538.838,0.0
51139.0,STARLINK-3172,PAYLOAD,2024-01-27 14:45:27,15.08837127,0.0001358,53.2167,165.0978,80.432,279.6825,3.0874e-06,-2.39e-06,0.0,0 STARLINK-3172,1 51139U 22005AM  24027.61489809 -.00000239  00000-0  30874-5 0  9990,2 51139  53.2167 165.0978 0001358  80.4320 279.6825 15.08837127112189,6917.889,95.438,540.694,538.815,0.0
51139.0,STARLINK-3172,PAYLOAD,2024-01-28 05:03:55,15.08842657,0.0001375,53.2164,162.4135,75.5492,284.5653,-4.5088e-05,-1.005e-05,0.0,0 STARLINK-3172,1 51139U 22005AM  24028.21105669 -.00001005  00000-0 -45088-4 0  9991,2 51139  53.2164 162.4135 0001375  75.5492 284.5653 15.08842657113387,6917.872,95.437,540.688,538.786,0.0
51139.0,STARLINK-3172,PAYLOAD,2024-01-28 14:36:13,15.08850066,0.0001456,53.2172,160.6355,83.307,276.8088,3.3536e-05,2.46e-06,0.0,0 STARLINK-3172,1 51139U 22005AM  24028.60848975  .00000246  00000-0  33536-4 0  9997,2 51139  53.2172 160.6355 0001456  83.3070 276.8088 15.08850066112332,6917.85,95.437,540.722,538.707,0.0
51139.0,STARLINK-3172,PAYLOAD,2024-01-28 17:46:58,15.08859306,0.0001414,53.217,160.0416,74.6379,285.4769,0.00013423,1.85e-05,0.0,0 STARLINK-3172,1 51139U 22005AM  24028.74096040  .00001850  00000-0  13423-3 0  9994,2 51139  53.2170 160.0416 0001414  74.6379 285.4769 15.08859306113464,6917.821,95.436,540.665,538.708,0.0
51139.0,STARLINK-3172,PAYLOAD,2024-01-29 17:37:47,15.08841218,0.0001479,53.2177,155.58,86.6198,273.4963,0.00015718,2.215e-05,0.0,0 STARLINK-3172,1 51139U 22005AM  24029.73457268  .00002215  00000-0  15718-3 0  9992,2 51139  53.2177 155.5800 0001479  86.6198 273.4963 15.08841218113613,6917.877,95.437,540.765,538.719,0.0
51139.0,STARLINK-3172,PAYLOAD,2024-01-30 07:56:15,15.08843064,0.000237,53.2158,152.9123,66.4464,293.6777,5.6082e-05,6.04e-06,0.0,0 STARLINK-3172,1 51139U 22005AM  24030.33073830  .00000604  00000-0  56082-4 0  9999,2 51139  53.2158 152.9123 0002370  66.4464 293.6777 15.08843064113702,6917.871,95.437,541.376,538.096,0.0
51139.0,STARLINK-3172,PAYLOAD,2024-01-30 14:17:48,15.08838369,0.000175,53.2163,151.7206,70.1399,289.9781,5.5425e-06,-2e-06,0.0,0 STARLINK-3172,1 51139U 22005AM  24030.59570006 -.00000200  00000-0  55425-5 0  9998,2 51139  53.2163 151.7206 0001750  70.1399 289.9781 15.08838369112633,6917.885,95.438,540.961,538.54,0.0
51139.0,STARLINK-3172,PAYLOAD,2024-01-31 12:33:11,15.08836998,0.0001568,53.2169,147.556,95.6566,264.4605,0.00011354,1.519e-05,0.0,0 STARLINK-3172,1 51139U 22005AM  24031.52305471  .00001519  00000-0  11354-3 0  9998,2 51139  53.2169 147.5560 0001568  95.6566 264.4605 15.08836998113887,6917.89,95.438,540.839,538.67,0.0
51139.0,STARLINK-3172,PAYLOAD,2024-01-31 17:19:21,15.08841048,0.0001653,53.2165,146.6623,107.0677,253.0496,0.00013651,1.885e-05,0.0,0 STARLINK-3172,1 51139U 22005AM  24031.72177129  .00001885  00000-0  13651-3 0  9995,2 51139  53.2165 146.6623 0001653 107.0677 253.0496 15.08841048112804,6917.877,95.437,540.886,538.599,0.0
51139.0,STARLINK-3172,PAYLOAD,2024-02-01 10:48:37,15.0877552,0.000214,53.2177,143.3864,112.9473,247.1745,0.00094996,0.00014836,0.0,0 STARLINK-3172,1 51139U 22005AM  24032.45042971  .00014836  00000-0  94996-3 0  9993,2 51139  53.2177 143.3864 0002140 112.9473 247.1745 15.08775520114027,6918.077,95.442,541.423,538.462,0.0
51139.0,STARLINK-3172,PAYLOAD,2024-02-01 12:24:00,15.08775322,0.0002126,53.2176,143.0891,111.2337,248.8882,0.00099045,0.00015482,0.0,0 STARLINK-3172,1 51139U 22005AM  24032.51667207  .00015482  00000-0  99045-3 0  9993,2 51139  53.2176 143.0891 0002126 111.2337 248.8882 15.08775322112925,6918.078,95.442,541.414,538.472,0.0
51139.0,STARLINK-3172,PAYLOAD,2024-02-02 12:14:45,15.08841427,0.0001751,53.2175,138.6293,114.6752,245.4423,6.9629e-05,8.2e-06,0.0,0 STARLINK-3172,1 51139U 22005AM  24033.51025361  .00000820  00000-0  69629-4 0  9999,2 51139  53.2175 138.6293 0001751 114.6752 245.4423 15.08841427114185,6917.876,95.437,540.952,538.53,0.0
51139.0,STARLINK-3172,PAYLOAD,2024-02-02 13:50:08,15.08842716,0.0001725,53.2176,138.3324,113.7124,246.4049,7.6353e-05,9.27e-06,0.0,0 STARLINK-3172,1 51139U 22005AM  24033.57649272  .00000927  00000-0  76353-4 0  9998,2 51139  53.2176 138.3324 0001725 113.7124 246.4049 15.08842716113087,6917.872,95.437,540.93,538.544,0.0
51139.0,STARLINK-3172,PAYLOAD,2024-02-03 12:05:33,15.08835515,0.0001647,53.2182,134.1735,105.531,254.5865,3.1878e-05,2.19e-06,0.0,0 STARLINK-3172,1 51139U 22005AM  24034.50386058  .00000219  00000-0  31878-4 0  9999,2 51139  53.2182 134.1735 0001647 105.5310 254.5865 15.08835515114337,6917.894,95.438,540.898,538.62,0.0
51139.0,STARLINK-3172,PAYLOAD,2024-02-03 13:40:56,15.08835151,0.0001538,53.218,133.8768,99.1863,260.9303,2.5245e-05,1.14e-06,0.0,0 STARLINK-3172,1 51139U 22005AM  24034.57010140  .00000114  00000-0  25245-4 0  9997,2 51139  53.2180 133.8768 0001538  99.1863 260.9303 15.08835151113239,6917.895,95.438,540.824,538.696,0.0
51139.0,STARLINK-3172,PAYLOAD,2024-02-04 13:31:43,15.08844805,0.0001513,53.2181,129.4162,89.9654,270.1512,7.1771e-05,8.55e-06,0.0,0 STARLINK-3172,1 51139U 22005AM  24035.56369669  .00000855  00000-0  71771-4 0  9997,2 51139  53.2181 129.4162 0001513  89.9654 270.1512 15.08844805113384,6917.866,95.437,540.777,538.684,0.0
51139.0,STARLINK-3172,PAYLOAD,2024-02-05 11:47:08,15.08834694,0.000202,53.2187,125.2554,55.0475,305.0707,0.00010279,1.348e-05,0.0,0 STARLINK-3172,1 51139U 22005AM  24036.49106624  .00001348  00000-0  10279-3 0  9993,2 51139  53.2187 125.2554 0002020  55.0475 305.0707 15.08834694114636,6917.897,95.438,541.159,538.364,0.0
51139.0,STARLINK-3172,PAYLOAD,2024-02-05 13:22:31,15.08836202,0.0002039,53.219,124.9572,61.3164,298.8033,0.0001225,1.662e-05,0.0,0 STARLINK-3172,1 51139U 22005AM  24036.55730498  .00001662  00000-0  12250-3 0  9992,2 51139  53.2190 124.9572 0002039  61.3164 298.8033 15.08836202113537,6917.892,95.438,541.168,538.346,0.0
51139.0,STARLINK-3172,PAYLOAD,2024-02-06 13:13:17,15.08845864,0.0002068,53.2183,120.4916,58.3962,301.7232,3.4333e-05,2.58e-06,0.0,0 STARLINK-3172,1 51139U 22005AM  24037.55090158  .00000258  00000-0  34333-4 0  9992,2 51139  53.2183 120.4916 0002068  58.3962 301.7232 15.08845864113681,6917.862,95.437,541.158,538.297,0.0
51139.0,STARLINK-3172,PAYLOAD,2024-02-07 11:28:41,15.08844551,0.0001405,53.217,116.3314,91.0673,269.0481,3.4267e-05,2.58e-06,0.0,0 STARLINK-3172,1 51139U 22005AM  24038.47826006  .00000258  00000-0  34267-4 0  9999,2 51139  53.2170 116.3314 0001405  91.0673 269.0481 15.08844551113820,6917.866,95.437,540.703,538.76,0.0
51139.0,STARLINK-3172,PAYLOAD,2024-02-07 19:25:36,15.08853153,0.0001445,53.2164,114.8458,89.5654,270.5503,0.00011108,1.481e-05,0.0,0 STARLINK-3172,1 51139U 22005AM  24038.80945092  .00001481  00000-0  11108-3 0  9990,2 51139  53.2164 114.8458 0001445  89.5654 270.5503 15.08853153113875,6917.84,95.437,540.705,538.706,0.0
51139.0,STARLINK-3172,PAYLOAD,2024-02-08 11:19:28,15.0885254,0.0001782,53.2178,111.8686,83.5286,276.5909,9.9682e-05,1.299e-05,0.0,0 STARLINK-3172,1 51139U 22005AM  24039.47185355  .00001299  00000-0  99682-4 0  9993,2 51139  53.2178 111.8686 0001782  83.5286 276.5909 15.08852540115089,6917.842,95.437,540.94,538.474,0.0
